ZHONGXING-2C            
1 41021U 15063A   26159.79202604 -.00000307  00000+0  00000+0 0  9995
2 41021   0.2508  90.2727 0007708  95.8860  99.5530  1.00268146 38897
GSAT-15                 
1 41028U 15065A   26160.09836507 -.00000241  00000+0  00000+0 0  9991
2 41028   0.0509 111.3757 0003942 328.0841 306.9428  1.00270683 38718
BADR-7 (ARABSAT-6B)     
1 41029U 15065B   26160.20442778  .00000161  00000+0  00000+0 0  9998
2 41029   0.0364 234.9575 0003384 323.4666 158.7412  1.00270783 38685
LAOSAT 1                
1 41034U 15067A   26160.29604164 -.00000326  00000+0  00000+0 0  9998
2 41034   0.0384 185.8064 0002470 209.2814  97.6662  1.00273765 38783
TELSTAR 12V             
1 41036U 15068A   26160.19628106 -.00000102  00000+0  00000+0 0  9994
2 41036   0.0227  64.9271 0002316  11.2829 237.0364  1.00271099 38545
ELEKTRO-L 2             
1 41105U 15074A   26160.26557611 -.00000102  00000+0  00000+0 0  9998
2 41105   6.6730  70.6207 0001006 284.5070 343.6389  1.00271831 38426
COSMOS 2513             
1 41121U 15075A   26158.36140079 -.00000124  00000+0  00000+0 0  9995
2 41121   0.0781  99.8531 0003687 329.6914  36.5844  1.00272440 38450
EXPRESS-AMU1            
1 41191U 15082A   26160.27768281  .00000000  00000+0  00000+0 0  9996
2 41191   0.0205 348.6833 0002692  92.9794 312.0402  1.00269722 38180
GAOFEN-4                
1 41194U 15083A   26159.59771124 -.00000319  00000+0  00000+0 0  9997
2 41194   0.3341  83.8441 0004165 111.8448  22.1741  1.00273550 38442
BELINTERSAT-1           
1 41238U 16001A   26160.06689578  .00000123  00000+0  00000+0 0  9994
2 41238   0.0445 123.5213 0002183 287.2015 282.3172  1.00274516 38157
IRNSS-1E                
1 41241U 16003A   26159.65095014 -.00000296  00000+0  00000+0 0  9991
2 41241  33.2165  59.8739 0017915 179.3895   3.8192  1.00269056 37990
EUTELSAT 9B             
1 41310U 16005A   26160.27230944  .00000079  00000+0  00000+0 0  9991
2 41310   0.0603  72.3490 0001810 334.1834 318.1389  1.00272593 38037
SES-9                   
1 41380U 16013A   26160.07805059 -.00000329  00000+0  00000+0 0  9999
2 41380   0.0108 336.9667 0001990 107.7708 309.1219  1.00273663 37357
EUTELSAT 65 WEST A      
1 41382U 16014A   26160.25766271 -.00000260  00000+0  00000+0 0  9998
2 41382   0.0499   8.9930 0002255  59.5338 216.6841  1.00272289 37445
IRNSS-1F                
1 41384U 16015A   26160.06316910  .00000175  00000+0  00000+0 0  9995
2 41384   5.3287  96.9647 0016592 186.7296  29.0825  1.00278601 37584
BEIDOU-2 IGSO-6         
1 41434U 16021A   26159.99654288 -.00000154  00000+0  00000+0 0  9999
2 41434  60.2137  38.1225 0057118 231.5364  79.8340  1.00261117 37396
IRNSS-1G                
1 41469U 16027A   26160.29621498 -.00000317  00000+0  00000+0 0  9996
2 41469   5.1787  97.6557 0007497 352.9448  43.2885  1.00270090 37105
JCSAT-2B                
1 41471U 16028A   26160.22975295 -.00000149  00000+0  00000+0 0  9993
2 41471   0.0178 355.4314 0000933  91.4650  47.4212  1.00269880 37059
THAICOM 8               
1 41552U 16031A   26160.14351767 -.00000105  00000+0  00000+0 0  9992
2 41552   0.0672  46.4148 0003703  11.2988 330.0130  1.00270432 36630
INTELSAT 31 (IS-31)     
1 41581U 16035A   26160.24740355 -.00000134  00000+0  00000+0 0  9996
2 41581   0.0207 261.7205 0000921 344.8969   5.0340  1.00270941 36609
BEIDOU-2 G7             
1 41586U 16037A   26160.29248830 -.00000336  00000+0  00000+0 0  9993
2 41586   1.6995  69.2528 0007201   2.7092  41.5387  1.00268616  6811
ABS-2A (MONGOLSAT-1)    
1 41588U 16038A   26160.19608645  .00000000  00000+0  00000+0 0  9996
2 41588   0.0181 323.1928 0001314  62.4355  17.2924  1.00267217 36628
EUTELSAT 117 WEST B     
1 41589U 16038B   26160.03340278  .00000004  00000+0  00000+0 0  9999
2 41589   0.0422 159.6913 0000345 138.3370 214.4010  1.00276750 36580
BRISAT                  
1 41591U 16039A   26160.22905962 -.00000180  00000+0  00000+0 0  9997
2 41591   0.0191 313.3052 0002031 124.2702  52.9977  1.00270542 36531
ECHOSTAR 18             
1 41592U 16039B   26160.04450314 -.00000265  00000+0  00000+0 0  9998
2 41592   0.0178 340.8727 0001393 102.1330 129.0878  1.00271708 36545
MUOS-5                  
1 41622U 16041A   26160.20949522 -.00000097  00000+0  00000+0 0  9990
2 41622   2.2216 301.4852 0196948 260.8787  25.4083  1.00271270 37000
TIANTONG-1 1            
1 41725U 16048A   26160.09836507 -.00000302  00000+0  00000+0 0  9995
2 41725   3.8330  43.3412 0006037  43.1119 307.8642  1.00270717 36183
JCSAT-16                
1 41729U 16050A   26160.22775962 -.00000234  00000+0  00000+0 0  9998
2 41729   0.0177 356.2594 0000921  90.5519  36.7275  1.00270108 35990
USA 270                 
1 41744U 16052A   26159.09509409  .00000095  00000+0  00000+0 0  9995
2 41744   4.1755  77.3049 0008515 337.9683  59.8197  1.00284145 28040
USA 271                 
1 41745U 16052B   26158.79771956 -.00000344  00000+0  00000+0 0  9998
2 41745   4.1460  77.3775 0010783 157.2143  71.4983  1.00262239 27822
INTELSAT 36 (IS-36)     
1 41747U 16053A   26160.21283448 -.00000007  00000+0  00000+0 0  9991
2 41747   0.0107 348.5946 0001898 347.6666  66.4482  1.00270500 35874
INSAT-3DR               
1 41752U 16054A   26160.14239100 -.00000060  00000+0  00000+0 0  9995
2 41752   0.0844  87.5464 0010441 186.6911 108.5347  1.00270533 35730
